start=new Date('2021-12-03T00:00:00.000Z').valueOf();
sats=[{"DECAY_DATE":null,"COUNTRY_CODE":"US","PERIOD":"95.592","MEAN_ANOMALY":"298.4579","CLASSIFICATION_TYPE":"U","ECCENTRICITY":"0.00017080","OBJECT_TYPE":"PAYLOAD","REV_AT_EPOCH":"6481","SITE":"AFETR","SEMIMAJOR_AXIS":"6925.364","MEAN_MOTION_DOT":"-0.00000972","EPOCH":"2021-12-02T09:00:04.246560","GP_ID":"190945116","TLE_LINE1":"1 46558U 20070AC  21336.37504915 -.00000972  00000-0 -46350-4 0  9998","BSTAR":"-0.00004635000000","FILE":"3230859","CENTER_NAME":"EARTH","TIME_SYSTEM":"UTC","INCLINATION":"53.0543","MEAN_MOTION_DDOT":"0.0000000000000","APOAPSIS":"548.412","EPHEMERIS_TYPE":"0","OBJECT_ID":"2020-070AC","NORAD_CAT_ID":"46558","OBJECT_NAME":"STARLINK-1680","REF_FRAME":"TEME","MEAN_MOTION":"15.06394849","RA_OF_ASC_NODE":"317.1669","ELEMENT_SET_NO":"999","ARG_OF_PERICENTER":"61.6582","PERIAPSIS":"546.046","TLE_LINE2":"2 46558  53.0543 317.1669 0001708  61.6582 298.4579 15.06394849 64819","RCS_SIZE":"LARGE","LAUNCH_DATE":"2020-10-06","MEAN_ELEMENT_THEORY":"SGP4"},{"COUNTRY_CODE":"US","PERIOD":"95.592","DECAY_DATE":null,"MEAN_ANOMALY":"298.2182","ECCENTRICITY":"0.00017840","CLASSIFICATION_TYPE":"U","OBJECT_TYPE":"PAYLOAD","REV_AT_EPOCH":"6503","SITE":"AFETR","SEMIMAJOR_AXIS":"6925.321","EPOCH":"2021-12-02T07:07:55.854336","MEAN_MOTION_DOT":"0.00001453","GP_ID":"190944866","TLE_LINE1":"1 46559U 20070AD  21336.29717424  .00001453  00000-0  11640-3 0  9997","BSTAR":"0.00011640000000","CENTER_NAME":"EARTH","FILE":"3230859","MEAN_MOTION_DDOT":"0.0000000000000","INCLINATION":"53.0549","TIME_SYSTEM":"UTC","EPHEMERIS_TYPE":"0","APOAPSIS":"548.421","OBJECT_ID":"2020-070AD","MEAN_MOTION":"15.06409125","RA_OF_ASC_NODE":"302.5133","OBJECT_NAME":"STARLINK-1681","NORAD_CAT_ID":"46559","REF_FRAME":"TEME","TLE_LINE2":"2 46559  53.0549 302.5133 0001784  61.8987 298.2182 15.06409125 65032","RCS_SIZE":"LARGE","ARG_OF_PERICENTER":"61.8987","ELEMENT_SET_NO":"999","PERIAPSIS":"545.950","MEAN_ELEMENT_THEORY":"SGP4","LAUNCH_DATE":"2020-10-06"},{"CLASSIFICATION_TYPE":"U","ECCENTRICITY":"0.00018350","MEAN_ANOMALY":"297.7586","DECAY_DATE":null,"PERIOD":"95.592","COUNTRY_CODE":"US","BSTAR":"-0.00013098000000","TLE_LINE1":"1 46560U 20070AE  21336.65518062 -.00002232  00000-0 -13098-3 0  9993","GP_ID":"190952274","MEAN_MOTION_DOT":"-0.00002232","SEMIMAJOR_AXIS":"6925.348","EPOCH":"2021-12-02T15:43:27.605568","REV_AT_EPOCH":"6489","SITE":"AFETR","OBJECT_TYPE":"PAYLOAD","APOAPSIS":"548.484","EPHEMERIS_TYPE":"0","TIME_SYSTEM":"UTC","INCLINATION":"53.0539","MEAN_MOTION_DDOT":"0.0000000000000","FILE":"3231126","CENTER_NAME":"EARTH","MEAN_ELEMENT_THEORY":"SGP4","LAUNCH_DATE":"2020-10-06","PERIAPSIS":"545.942","ELEMENT_SET_NO":"999","ARG_OF_PERICENTER":"62.3589","RCS_SIZE":"LARGE","TLE_LINE2":"2 46560  53.0539 315.9184 0001835  62.3589 297.7586 15.06400163 64896","REF_FRAME":"TEME","OBJECT_NAME":"STARLINK-1706","NORAD_CAT_ID":"46560","MEAN_MOTION":"15.06400163","RA_OF_ASC_NODE":"315.9184","OBJECT_ID":"2020-070AE"},{"RCS_SIZE":"LARGE","TLE_LINE2":"2 46561  53.0557 317.3396 0001855  50.2911 309.8241 15.06399501 64835","PERIAPSIS":"545.930","ARG_OF_PERICENTER":"50.2911","ELEMENT_SET_NO":"999","LAUNCH_DATE":"2020-10-06","MEAN_ELEMENT_THEORY":"SGP4","OBJECT_ID":"2020-070AF","MEAN_MOTION":"15.06399501","RA_OF_ASC_NODE":"317.3396","REF_FRAME":"TEME","OBJECT_NAME":"STARLINK-1709","NORAD_CAT_ID":"46561","EPHEMERIS_TYPE":"0","APOAPSIS":"548.500","CENTER_NAME":"EARTH","FILE":"3230859","MEAN_MOTION_DDOT":"0.0000000000000","INCLINATION":"53.0557","TIME_SYSTEM":"UTC","TLE_LINE1":"1 46561U 20070AF  21336.33818803  .00001107  00000-0  93245-4 0  9996","GP_ID":"190943864","BSTAR":"0.00009324500000","OBJECT_TYPE":"PAYLOAD","SEMIMAJOR_AXIS":"6925.350","EPOCH":"2021-12-02T08:06:59.445792","MEAN_MOTION_DOT":"0.00001107","SITE":"AFETR","REV_AT_EPOCH":"6483","ECCENTRICITY":"0.00018550","CLASSIFICATION_TYPE":"U","PERIOD":"95.592","COUNTRY_CODE":"US","DECAY_DATE":null,"MEAN_ANOMALY":"309.8241"},{"CENTER_NAME":"EARTH","FILE":"3231094","MEAN_MOTION_DDOT":"0.0000000000000","INCLINATION":"53.0557","TIME_SYSTEM":"UTC","EPHEMERIS_TYPE":"0","APOAPSIS":"548.579","OBJECT_ID":"2020-070AG","RA_OF_ASC_NODE":"310.8358","MEAN_MOTION":"15.06404747","REF_FRAME":"TEME","OBJECT_NAME":"STARLINK-1714","NORAD_CAT_ID":"46562","RCS_SIZE":"LARGE","TLE_LINE2":"2 46562  53.0557 310.8358 0001993  50.1092 310.0072 15.06404747 64659","PERIAPSIS":"545.819","ARG_OF_PERICENTER":"50.1092","ELEMENT_SET_NO":"999","LAUNCH_DATE":"2020-10-06","MEAN_ELEMENT_THEORY":"SGP4","PERIOD":"95.592","COUNTRY_CODE":"US","DECAY_DATE":null,"MEAN_ANOMALY":"310.0072","ECCENTRICITY":"0.00019930","CLASSIFICATION_TYPE":"U","OBJECT_TYPE":"PAYLOAD","EPOCH":"2021-12-02T16:07:59.696544","SEMIMAJOR_AXIS":"6925.334","MEAN_MOTION_DOT":"0.00002973","SITE":"AFETR","REV_AT_EPOCH":"6465","TLE_LINE1":"1 46562U 20070AG  21336.67221871  .00002973  00000-0  21839-3 0  9998","GP_ID":"190951348","BSTAR":"0.00021839000000"},{"FILE":"3230859","CENTER_NAME":"EARTH","TIME_SYSTEM":"UTC","MEAN_MOTION_DDOT":"0.0000000000000","INCLINATION":"53.0527","APOAPSIS":"548.384","EPHEMERIS_TYPE":"0","OBJECT_ID":"2020-070AH","REF_FRAME":"TEME","NORAD_CAT_ID":"46563","OBJECT_NAME":"STARLINK-1730","RA_OF_ASC_NODE":"311.7949","MEAN_MOTION":"15.06403435","PERIAPSIS":"546.022","ELEMENT_SET_NO":"999","ARG_OF_PERICENTER":"62.1661","RCS_SIZE":"LARGE","TLE_LINE2":"2 46563  53.0527 311.7949 0001706  62.1661 297.9501 15.06403435 64923","LAUNCH_DATE":"2020-10-06","MEAN_ELEMENT_THEORY":"SGP4","DECAY_DATE":null,"PERIOD":"95.592","COUNTRY_CODE":"US","MEAN_ANOMALY":"297.9501","CLASSIFICATION_TYPE":"U","ECCENTRICITY":"0.00017060","OBJECT_TYPE":"PAYLOAD","SEMIMAJOR_AXIS":"6925.338","EPOCH":"2021-12-02T10:54:51.101568","MEAN_MOTION_DOT":"0.00005157","SITE":"AFETR","REV_AT_EPOCH":"6492","TLE_LINE1":"1 46563U 20070AH  21336.45475812  .00005157  00000-0  36480-3 0  9996","GP_ID":"190945367","BSTAR":"0.00036480000000"},{"DECAY_DATE":null,"PERIOD":"95.592","COUNTRY_CODE":"US","MEAN_ANOMALY":"308.0775","ECCENTRICITY":"0.00020110","CLASSIFICATION_TYPE":"U","OBJECT_TYPE":"PAYLOAD","SEMIMAJOR_AXIS":"6925.364","EPOCH":"2021-12-02T08:52:46.550208","MEAN_MOTION_DOT":"0.00001166","SITE":"AFETR","REV_AT_EPOCH":"6491","TLE_LINE1":"1 46564U 20070AJ  21336.36998322  .00001166  00000-0  97212-4 0  9990","GP_ID":"190944115","BSTAR":"0.00009721200000","FILE":"3230859","CENTER_NAME":"EARTH","TIME_SYSTEM":"UTC","MEAN_MOTION_DDOT":"0.0000000000000","INCLINATION":"53.0557","APOAPSIS":"548.622","EPHEMERIS_TYPE":"0","OBJECT_ID":"2020-070AJ","REF_FRAME":"TEME","NORAD_CAT_ID":"46564","OBJECT_NAME":"STARLINK-1733","RA_OF_ASC_NODE":"312.1958","MEAN_MOTION":"15.06394903","PERIAPSIS":"545.836","ELEMENT_SET_NO":"999","ARG_OF_PERICENTER":"52.0396","RCS_SIZE":"LARGE","TLE_LINE2":"2 46564  53.0557 312.1958 0002011  52.0396 308.0775 15.06394903 64910","LAUNCH_DATE":"2020-10-06","MEAN_ELEMENT_THEORY":"SGP4"},{"BSTAR":"0.00007655400000","GP_ID":"190944365","TLE_LINE1":"1 46565U 20070AK  21336.34785654  .00000859  00000-0  76554-4 0  9995","SITE":"AFETR","REV_AT_EPOCH":"6490","SEMIMAJOR_AXIS":"6925.317","EPOCH":"2021-12-02T08:20:54.805056","MEAN_MOTION_DOT":"0.00000859","OBJECT_TYPE":"PAYLOAD","CLASSIFICATION_TYPE":"U","ECCENTRICITY":"0.00017510","MEAN_ANOMALY":"301.5738","DECAY_DATE":null,"COUNTRY_CODE":"US","PERIOD":"95.591","LAUNCH_DATE":"2020-10-06","MEAN_ELEMENT_THEORY":"SGP4","ELEMENT_SET_NO":"999","ARG_OF_PERICENTER":"58.5422","PERIAPSIS":"545.970","TLE_LINE2":"2 46565  53.0654 312.2398 0001751  58.5422 301.5738 15.06410170 64900","RCS_SIZE":"LARGE","NORAD_CAT_ID":"46565","OBJECT_NAME":"STARLINK-1735","REF_FRAME":"TEME","MEAN_MOTION":"15.06410170","RA_OF_ASC_NODE":"312.2398","OBJECT_ID":"2020-070AK","APOAPSIS":"548.395","EPHEMERIS_TYPE":"0","TIME_SYSTEM":"UTC","INCLINATION":"53.0654","MEAN_MOTION_DDOT":"0.0000000000000","FILE":"3230859","CENTER_NAME":"EARTH"},{"APOAPSIS":"548.515","EPHEMERIS_TYPE":"0","TIME_SYSTEM":"UTC","MEAN_MOTION_DDOT":"0.0000000000000","INCLINATION":"53.0530","FILE":"3230859","CENTER_NAME":"EARTH","MEAN_ELEMENT_THEORY":"SGP4","LAUNCH_DATE":"2020-10-06","PERIAPSIS":"545.887","ARG_OF_PERICENTER":"56.0016","ELEMENT_SET_NO":"999","RCS_SIZE":"LARGE","TLE_LINE2":"2 46566  53.0530 312.3642 0001898  56.0016 304.1153 15.06404111 64909","REF_FRAME":"TEME","OBJECT_NAME":"STARLINK-1740","NORAD_CAT_ID":"46566","RA_OF_ASC_NODE":"312.3642","MEAN_MOTION":"15.06404111","OBJECT_ID":"2020-070AL","ECCENTRICITY":"0.00018980","CLASSIFICATION_TYPE":"U","MEAN_ANOMALY":"304.1153","DECAY_DATE":null,"PERIOD":"95.592","COUNTRY_CODE":"US","BSTAR":"0.00029143000000","TLE_LINE1":"1 46566U 20070AL  21336.33311711  .00004062  00000-0  29143-3 0  9995","GP_ID":"190945117","SEMIMAJOR_AXIS":"6925.336","EPOCH":"2021-12-02T07:59:41.318304","MEAN_MOTION_DOT":"0.00004062","SITE":"AFETR","REV_AT_EPOCH":"6490","OBJECT_TYPE":"PAYLOAD"},{"OBJECT_ID":"2020-070AM","MEAN_MOTION":"15.06393340","RA_OF_ASC_NODE":"312.2341","NORAD_CAT_ID":"46567","OBJECT_NAME":"STARLINK-1741","REF_FRAME":"TEME","TLE_LINE2":"2 46567  53.0554 312.2341 0001820  57.7646 302.3519 15.06393340 64911","RCS_SIZE":"LARGE","ELEMENT_SET_NO":"999","ARG_OF_PERICENTER":"57.7646","PERIAPSIS":"545.974","MEAN_ELEMENT_THEORY":"SGP4","LAUNCH_DATE":"2020-10-06","CENTER_NAME":"EARTH","FILE":"3230859","MEAN_MOTION_DDOT":"0.0000000000000","INCLINATION":"53.0554","TIME_SYSTEM":"UTC","EPHEMERIS_TYPE":"0","APOAPSIS":"548.494","OBJECT_TYPE":"PAYLOAD","REV_AT_EPOCH":"6491","SITE":"AFETR","SEMIMAJOR_AXIS":"6925.369","EPOCH":"2021-12-02T08:42:09.694080","MEAN_MOTION_DOT":"-0.00001135","GP_ID":"190944867","TLE_LINE1":"1 46567U 20070AM  21336.36261220 -.00001135  00000-0 -57295-4 0  9998","BSTAR":"-0.00005729500000","COUNTRY_CODE":"US","PERIOD":"95.593","DECAY_DATE":null,"MEAN_ANOMALY":"302.3519","CLASSIFICATION_TYPE":"U","ECCENTRICITY":"0.00018200"}];
